{"version": 0.6, "generator": "Overpass API 0.7.62.1 084b4234", "osm3s": {"timestamp_osm_base": "2024-07-11T16:33:28Z", "copyright": "The data included in this document is from www.openstreetmap.org. The data is made available under ODbL."}, "elements": [{"type": "node", "id": 850436891, "lat": 40.4245336, "lon": -86.9076508}, {"type": "node", "id": 850436980, "lat": 40.4245371, "lon": -86.9078829}, {"type": "node", "id": 1312604367, "lat": 40.4226734, "lon": -86.9054809}, {"type": "node", "id": 1312604380, "lat": 40.4245509, "lon": -86.9084243, "tags": {"addr:city": "West Lafayette", "addr:housenumber": "117", "addr:postcode": "47906", "addr:state": "IN", "addr:street": "Northwestern Avenue", "amenity": "restaurant", "cuisine": "mediterranean", "diet:halal": "yes", "diet:vegetarian": "yes", "name": "Blue Nile", "opening_hours": "Mo-Sa 11:00-23:00; Su 12:00-22:00", "phone": "+1 765 269 9980", "website": "https://www.bluenilerestaurant.net"}}, {"type": "node", "id": 1312604395, "lat": 40.424087, "lon": -86.9090249, "tags": {"amenity": "restaurant", "name": "Mad Mushroom Pizza"}}, {"type": "node", "id": 1312604416, "lat": 40.4227398, "lon": -86.907614, "tags": {"addr:city": "West Lafayette", "addr:housenumber": "135", "addr:postcode": "47906", "addr:state": "IN", "addr:street": "South Chauncey Avenue", "addr:unit": "Suite 2C", "amenity": "restaurant", "cuisine": "thai", "disused:brand": "Taco Bell", "disused:brand:wikidata": "Q752941", "disused:brand:wikipedia": "en:Taco Bell", "disused:cuisine": "tex-mex", "disused:name": "Taco Bell", "name": "Basil Thai", "opening_hours": "Mo-Sa 11:30-21:30; Su 12:00-21:00", "phone": "(765) 743-3330", "takeaway": "yes", "website": "http://www.basilthai.net"}}, {"type": "node", "id": 1312604431, "lat": 40.4245957, "lon": -86.9078814}, {"type": "node", "id": 1312604454, "lat": 40.4227438, "lon": -86.9053484}, {"type": "node", "id": 1312604464, "lat": 40.4227754, "lon": -86.9054295}, {"type": "node", "id": 1312604494, "lat": 40.4245922, "lon": -86.9076492}, {"type": "node", "id": 1312604559, "lat": 40.422687, "lon": -86.9054878}, {"type": "node", "id": 1718571600, "lat": 40.4227606, "lon": -86.9076782, "tags": {"addr:city": "West Lafayette", "addr:housenumber": "135", "addr:postcode": "47906", "addr:state": "IN", "addr:street": "South Chauncey Avenue", "addr:unit": "Suite 2G", "amenity": "restaurant", "cuisine": "mediterranean", "diet:halal": "yes", "disused:cuisine": "japanese", "disused:name": "AH*Z", "name": "Hala's Grill", "opening_hours": "Mo-Su 11:00-21:00", "phone": "765 743 4252", "website": "https://www.halasgrill.com"}}, {"type": "node", "id": 3053702005, "lat": 40.4226471, "lon": -86.9054178}, {"type": "node", "id": 3053702006, "lat": 40.422696, "lon": -86.9054832}, {"type": "node", "id": 3053702007, "lat": 40.4227021, "lon": -86.9055016}, {"type": "node", "id": 3053702008, "lat": 40.4227786, "lon": -86.9055036}, {"type": "node", "id": 4747904128, "lat": 40.4254664, "lon": -86.9294398, "tags": {"amenity": "restaurant", "cuisine": "korean", "name": "Yori"}}, {"type": "node", "id": 5495110048, "lat": 40.4240862, "lon": -86.9086727, "tags": {"addr:city": "West Lafayette", "addr:housenumber": "316", "addr:postcode": "47906", "addr:state": "IN", "addr:street": "State Street", "amenity": "restaurant", "cuisine": "pizza", "delivery": "yes", "name": "Lotsa Pizza", "opening_hours": "Su-We 11:00-23:00, Th-Sa 11:00-03:00", "outdoor_seating": "no", "takeaway": "yes", "website": "https://lotsa.com/"}}, {"type": "node", "id": 8023920890, "lat": 40.4240649, "lon": -86.9067776, "tags": {"amenity": "restaurant", "brand": "Noodles & Company", "brand:wikidata": "Q7049673", "cuisine": "pasta", "name": "Noodles & Company"}}, {"type": "node", "id": 8023920892, "lat": 40.4245325, "lon": -86.9067723, "tags": {"addr:city": "West Lafayette", "addr:housenumber": "102", "addr:postcode": "47906", "addr:state": "IN", "addr:street": "Chauncey Avenue", "addr:unit": "Suite D", "amenity": "restaurant", "cuisine": "sushi", "name": "Maru Sushi", "opening_hours": "Mo-Fr 11:00-21:30, Sa 12:00-21:30, Su 17:00-21:00", "phone": "+17657432646", "website": "https://maru-sushi.us/"}}, {"type": "node", "id": 8023920911, "lat": 40.4243327, "lon": -86.9070808, "tags": {"amenity": "restaurant", "cuisine": "noodle", "name": "Noodles & I"}}, {"type": "node", "id": 8103907707, "lat": 40.4210778, "lon": -86.9043484, "tags": {"addr:city": "West Lafayette", "addr:housenumber": "138", "addr:postcode": "47906", "addr:state": "IN", "addr:street": "South River Road", "amenity": "restaurant", "cuisine": "asian", "name": "DAKSHIN", "phone": "+1 765-743-2222"}}, {"type": "node", "id": 8648179267, "lat": 40.4214361, "lon": -86.9036772, "tags": {"amenity": "restaurant", "cuisine": "chinese", "name": "Happy China"}}, {"type": "node", "id": 8648179268, "lat": 40.4214562, "lon": -86.9037257, "tags": {"amenity": "restaurant", "cuisine": "chinese", "name": "O-ishi"}}, {"type": "node", "id": 8844777759, "lat": 40.4227773, "lon": -86.9054731}, {"type": "node", "id": 8844777762, "lat": 40.4227488, "lon": -86.9053612}, {"type": "node", "id": 9418236861, "lat": 40.424674, "lon": -86.911108, "tags": {"addr:city": "West Lafayette", "addr:housenumber": "101", "addr:postcode": "47906", "addr:state": "IN", "addr:street": "North Grant Street", "amenity": "restaurant", "bar": "yes", "brewery": "blue_moon;dos_equis;bud_light;michelob_ultra;coors_light;miller_lite", "cuisine": "cajun;seafood;burger", "min_age": "0", "name": "Walk On's Sports Bistreaux", "opening_hours": "Mo-Fr 07:30-23:00; Sa-Su 10:00-23:00", "website": "https://purdue.campusdish.com/LocationsAndMenus/PMUMarketplace/WalkOnsSportsBistreaux"}}, {"type": "node", "id": 9418236862, "lat": 40.4251958, "lon": -86.9113745, "tags": {"addr:city": "West Lafayette", "addr:housenumber": "101", "addr:postcode": "47906", "addr:state": "IN", "addr:street": "North Grant Street", "amenity": "restaurant", "cuisine": "pizza", "name": "Pizza and Parm", "opening_hours": "Mo-Fr 11:00-20:00", "website": "https://purdue.campusdish.com/LocationsAndMenus/PMUMarketplace/PizzaandParm"}}, {"type": "node", "id": 9418236863, "lat": 40.425383, "lon": -86.9113724, "tags": {"addr:city": "West Lafayette", "addr:housenumber": "101", "addr:postcode": "47906", "addr:state": "IN", "addr:street": "North Grant Street", "amenity": "restaurant", "cuisine": "barbecue", "name": "BBQ District", "opening_hours": "Mo-Th 10:30-20:00; Fr 10:30-15:00", "website": "https://purdue.campusdish.com/LocationsAndMenus/PMUMarketplace/BBQDistrict"}}, {"type": "node", "id": 9426991700, "lat": 40.4252736, "lon": -86.9113809, "tags": {"amenity": "restaurant", "name": "Latin Inspired"}}, {"type": "node", "id": 9426991701, "lat": 40.4252857, "lon": -86.9114758, "tags": {"amenity": "restaurant", "name": "Sol Torro"}}, {"type": "node", "id": 9426991702, "lat": 40.4251554, "lon": -86.9111581, "tags": {"amenity": "restaurant", "name": "Main Street Poke"}}, {"type": "node", "id": 9426991703, "lat": 40.4253863, "lon": -86.9111754, "tags": {"amenity": "restaurant", "name": "Fresh Fare"}}, {"type": "node", "id": 9426991704, "lat": 40.4249552, "lon": -86.911391, "tags": {"amenity": "restaurant", "cuisine": "sushi", "name": "Sushi Boss"}}, {"type": "node", "id": 9426991705, "lat": 40.4248851, "lon": -86.9113895, "tags": {"amenity": "restaurant", "diet:halal": "yes", "name": "Aatish"}}, {"type": "node", "id": 9426991706, "lat": 40.4249303, "lon": -86.9114617, "tags": {"amenity": "restaurant", "name": "Chef Bill Kim"}}, {"type": "node", "id": 9525991453, "lat": 40.4315026, "lon": -86.9136865, "tags": {"addr:city": "West Lafayette", "addr:housenumber": "620", "addr:postcode": "47906", "addr:street": "West Stadium Avenue", "amenity": "restaurant", "cuisine": "korean;asian;japanese", "name": "Yummy Time", "opening_hours": "Mo-Fr 07:00-19:00,Sa 08:00-18:00", "phone": "+1 (765) 746-1000", "website": "http://www.mycaferoyale.com/"}}, {"type": "node", "id": 9525991459, "lat": 40.431565, "lon": -86.9130139, "tags": {"addr:city": "West Lafayette", "addr:housenumber": "602", "addr:postcode": "47906", "addr:state": "IN", "addr:street": "West Stadium Avenue", "amenity": "restaurant", "brand": "Insomnia Cookies", "brand:wikidata": "Q16997024", "cuisine": "ice_cream;cookie", "name": "Insomnia Cookies", "opening_hours": "12:00-03:00", "phone": "+1-765-743-9070", "shop": "pastry", "website": "https://insomniacookies.com/"}}, {"type": "node", "id": 9573487726, "lat": 40.4240741, "lon": -86.9078559, "tags": {"addr:city": "West Lafayette", "addr:housenumber": "100", "addr:postcode": "47906", "addr:state": "IN", "addr:street": "Northwestern Avenue", "amenity": "restaurant", "name": "Greyhouse Coffee", "website": "https://greyhousecoffee.com/"}}, {"type": "node", "id": 9573487872, "lat": 40.4259043, "lon": -86.9078939, "tags": {"addr:city": "West Lafayette", "addr:housenumber": "302", "addr:postcode": "47906", "addr:state": "IN", "addr:street": "Vine Street", "amenity": "restaurant", "cuisine": "pizza", "name": "HotBox Pizza"}}, {"type": "node", "id": 9771019208, "lat": 40.4228516, "lon": -86.9077813, "tags": {"addr:city": "West Lafayette", "addr:housenumber": "135", "addr:postcode": "47906", "addr:state": "IN", "addr:street": "South Chauncey Avenue", "addr:unit": "2F2", "amenity": "restaurant", "name": "Blaze Chinese BBQ"}}, {"type": "node", "id": 10163849071, "lat": 40.4240542, "lon": -86.907178, "tags": {"amenity": "restaurant", "brand": "Lululemon", "cuisine": "ramen", "name": "Strings"}}, {"type": "node", "id": 10163877540, "lat": 40.4229797, "lon": -86.906774, "tags": {"addr:city": "West Lafayette", "addr:housenumber": "100", "addr:postcode": "47906", "addr:state": "IN", "addr:street": "South Chauncey Avenue", "addr:unit": "STE 110", "air_conditioning": "yes", "amenity": "restaurant", "cuisine": "japanese", "name": "Yatagarasu", "opening_hours": "Mo-Su 12:00-22:00", "phone": "+17654797952", "website": "https://www.yatagarasuramen.com/"}}, {"type": "node", "id": 10816583716, "lat": 40.4217875, "lon": -86.9048298, "tags": {"addr:city": "West Lafayette", "addr:housenumber": "111", "addr:postcode": "47906", "addr:state": "IN", "addr:street": "South River Road", "addr:unit": "B", "amenity": "restaurant", "cuisine": "indian", "name": "Taste of India", "phone": "765-250-5600", "website": "https://tasteofindiapurdue.com/"}}, {"type": "node", "id": 10816583717, "lat": 40.421676, "lon": -86.9048982, "tags": {"addr:city": "West Lafayette", "addr:housenumber": "111", "addr:postcode": "47906", "addr:state": "IN", "addr:street": "South River Road", "addr:unit": "D", "amenity": "restaurant", "cuisine": "chinese", "name": "Bao Dumpling", "phone": "765-250-3395"}}, {"type": "node", "id": 11055159564, "lat": 40.4229901, "lon": -86.9068608, "tags": {"amenity": "restaurant", "name": "The Tap"}}, {"type": "node", "id": 11564196739, "lat": 40.4249593, "lon": -86.9267646, "tags": {"air_conditioning": "yes", "amenity": "restaurant", "cuisine": "chinese", "level": "1", "name": "Shen Ye @ Harrison Grill", "outdoor_seating": "no", "smoking": "no", "toilets": "yes"}}, {"type": "way", "id": 71497486, "nodes": [1312604431, 850436980, 850436891, 1312604494, 1312604431], "tags": {"amenity": "restaurant", "building": "yes", "name": "Rolling Bowl"}}, {"type": "way", "id": 116427250, "nodes": [1312604464, 8844777759, 3053702008, 3053702007, 3053702006, 1312604559, 1312604367, 3053702005, 1312604454, 8844777762, 1312604464], "tags": {"addr:city": "West Lafayette", "addr:housenumber": "2", "addr:postcode": "47906", "addr:state": "IN", "addr:street": "North Salisbury Street", "amenity": "restaurant", "building": "yes", "cuisine": "burger;american", "name": "Triple XXX Family Restaurant", "opening_hours": "We-Mo 07:00-22:00", "phone": "765-743-5373", "website": "https://www.triplexxxfamilyrestaurant.com"}}]}